{
    "links": {
        "self": "http://www.neowsapp.com/rest/v1/neo/3843211?api_key=iIulBulltgU6a56xZRHN4H3l9WmuAYTsLGpBGhQ2"
    },
    "id": "3843211",
    "neo_reference_id": "3843211",
    "name": "(2019 NY4)",
    "designation": "2019 NY4",
    "nasa_jpl_url": "http://ssd.jpl.nasa.gov/sbdb.cgi?sstr=3843211",
    "absolute_magnitude_h": 22.4,
    "estimated_diameter": {
        "kilometers": {
            "estimated_diameter_min": 0.0880146521,
            "estimated_diameter_max": 0.1968067451
        },
        "meters": {
            "estimated_diameter_min": 88.0146520901,
            "estimated_diameter_max": 196.8067450894
        },
        "miles": {
            "estimated_diameter_min": 0.0546897524,
            "estimated_diameter_max": 0.122290004
        },
        "feet": {
            "estimated_diameter_min": 288.7619911632,
            "estimated_diameter_max": 645.6914415591
        }
    },
    "is_potentially_hazardous_asteroid": false,
    "close_approach_data": [
        {
            "close_approach_date": "2018-07-17",
            "close_approach_date_full": "2018-Jul-17 14:56",
            "epoch_date_close_approach": 1531839360000,
            "relative_velocity": {
                "kilometers_per_second": "28.9969010731",
                "kilometers_per_hour": "104388.8438632356",
                "miles_per_hour": "64863.1680104644"
            },
            "miss_distance": {
                "astronomical": "0.4515314585",
                "lunar": "175.6457373565",
                "kilometers": "67548144.429593395",
                "miles": "41972470.659223051"
            },
            "orbiting_body": "Earth"
        },
        {
            "close_approach_date": "2019-07-05",
            "close_approach_date_full": "2019-Jul-05 01:20",
            "epoch_date_close_approach": 1562289600000,
            "relative_velocity": {
                "kilometers_per_second": "20.7973487961",
                "kilometers_per_hour": "74870.4556658452",
                "miles_per_hour": "46521.5895219247"
            },
            "miss_distance": {
                "astronomical": "0.0584324825",
                "lunar": "22.7302356925",
                "kilometers": "8741374.920812275",
                "miles": "5431638.507368395"
            },
            "orbiting_body": "Earth"
        },
        {
            "close_approach_date": "2020-07-02",
            "close_approach_date_full": "2020-Jul-02 08:53",
            "epoch_date_close_approach": 1593679980000,
            "relative_velocity": {
                "kilometers_per_second": "18.5568322676",
                "kilometers_per_hour": "66804.5961633852",
                "miles_per_hour": "41509.7780994101"
            },
            "miss_distance": {
                "astronomical": "0.3566864193",
                "lunar": "138.7510171077",
                "kilometers": "53359528.585206891",
                "miles": "33156073.5952854558"
            },
            "orbiting_body": "Earth"
        },
        {
            "close_approach_date": "2021-01-19",
            "close_approach_date_full": "2021-Jan-19 07:16",
            "epoch_date_close_approach": 1611040560000,
            "relative_velocity": {
                "kilometers_per_second": "23.9824735961",
                "kilometers_per_hour": "86336.9049460709",
                "miles_per_hour": "53646.395187185"
            },
            "miss_distance": {
                "astronomical": "0.3477262511",
                "lunar": "135.2655116779",
                "kilometers": "52019106.507645157",
                "miles": "32323173.9383588866"
            },
            "orbiting_body": "Earth"
        },
        {
            "close_approach_date": "2021-12-16",
            "close_approach_date_full": "2021-Dec-16 02:08",
            "epoch_date_close_approach": 1639620480000,
            "relative_velocity": {
                "kilometers_per_second": "26.0024525024",
                "kilometers_per_hour": "93608.8290086864",
                "miles_per_hour": "58164.8860026474"
            },
            "miss_distance": {
                "astronomical": "0.2938571649",
                "lunar": "114.3104371461",
                "kilometers": "43960405.953278763",
                "miles": "27315729.6121544094"
            },
            "orbiting_body": "Earth"
        }
    ],
    "orbital_data": {
        "orbit_id": "1",
        "orbit_determination_date": "2019-07-09 06:13:54",
        "first_observation_date": "2019-07-07",
        "last_observation_date": "2019-07-09",
        "data_arc_in_days": 2,
        "observations_used": 30,
        "orbit_uncertainty": "8",
        "minimum_orbit_intersection": ".0421149",
        "jupiter_tisserand_invariant": "6.110",
        "epoch_osculation": "2458673.5",
        "eccentricity": ".308240034312358",
        "semi_major_axis": ".9501189247387931",
        "inclination": "38.77961286566018",
        "ascending_node_longitude": "282.9969152589595",
        "orbital_period": "338.2714770400526",
        "perihelion_distance": ".6572542347764868",
        "perihelion_argument": "231.5637607097974",
        "aphelion_distance": "1.242983614701099",
        "perihelion_time": "2458582.711750858919",
        "mean_anomaly": "96.61993963185752",
        "mean_motion": "1.064233979022047",
        "equinox": "J2000",
        "orbit_class": {
            "orbit_class_type": "ATE",
            "orbit_class_description": "Near-Earth asteroid orbits similar to that of 2062 Aten",
            "orbit_class_range": "a (semi-major axis) < 1.0 AU; q (perihelion) > 0.983 AU"
        }
    },
    "is_sentry_object": false
}